LANDSAT 9               
1 49260U 21088A   24338.44175332  .00001349  00000+0  30932-3 0  9995
2 49260  98.2146  45.8651 0001081  83.4677 276.6644 14.57128945169341
